NOAA 15                 
1 25338U 98030A   22337.49995499  .00000129  00000+0  71936-4 0  9997
2 25338  98.6284   4.6991 0010764 159.5530 200.6083 14.26202774277364
DMSP 5D-3 F15 (USA 147) 
1 25991U 99067A   22336.87370438  .00000114  00000+0  80374-4 0  9994
2 25991  99.0643 331.4327 0011040  73.2754  45.8307 14.16604718187614
DMSP 5D-3 F16 (USA 172) 
1 28054U 03048A   22337.41720153  .00000082  00000+0  67338-4 0  9994
2 28054  99.0018 329.2116 0007013 193.5558 329.3789 14.13711623986899
NOAA 18                 
1 28654U 05018A   22337.47073919  .00000158  00000+0  10910-3 0  9993
2 28654  98.9332  47.6344 0013888 210.3622 149.6747 14.12815473903931
METEOSAT-9 (MSG-2)      
1 28912U 05049B   22336.89762528  .00000131  00000+0  00000+0 0  9996
2 28912   6.4018  65.1780 0001631 189.6003 185.7787  1.00275327 62129
EWS-G1 (GOES 13)        
1 29155U 06018A   22336.87253240  .00000043  00000+0  00000+0 0  9999
2 29155   1.0048  93.7376 0006723 146.1416 207.2505  1.00272922 30417
DMSP 5D-3 F17 (USA 191) 
1 29522U 06050A   22337.53604536  .00000110  00000+0  80643-4 0  9996
2 29522  98.7618 349.3887 0010574 136.2385 223.9628 14.14143069829800
FENGYUN 3A              
1 32958U 08026A   22337.51605291  .00000082  00000+0  59844-4 0  9992
2 32958  98.5281 293.4300 0007656 253.2081 106.8256 14.18766302752301
FENGYUN 2E              
1 33463U 08066A   22336.85455697 -.00000203  00000+0  00000+0 0  9998
2 33463   6.2797  64.2973 0001014 
NOAA 19                 
1 33591U 09005A   22337.49142892  .00000140  00000+0  10063-3 0  9998
2 33591  99.1290  15.0279 0014776  74.7854 285.4949 14.12645584712312
GOES 14                 
1 35491U 09033A   22336.65690786 -.00000090  00000+0  00000+0 0  9998
2 35491   0.1916 261.9442 0018168 321.4571 340.3746  1.00271310 49146